[{"OBJECT_NAME":"ONEWEB-0288","OBJECT_ID":"2021-075D","EPOCH":"2026-05-13T00:37:17.033376","MEAN_MOTION":13.12442479,"ECCENTRICITY":0.0001671,"INCLINATION":87.8972,"RA_OF_ASC_NODE":357.6459,"ARG_OF_PERICENTER":90.8076,"MEAN_ANOMALY":269.3244,"EPHEMERIS_TYPE":0,"CLASSIFICATION_TYPE":"U","NORAD_CAT_ID":49078,"ELEMENT_SET_NO":999,"REV_AT_EPOCH":23057,"BSTAR":-0.00080984,"MEAN_MOTION_DOT":-2.79e-06,"MEAN_MOTION_DDOT":0.0},{"OBJECT_NAME":"ONEWEB-0289","OBJECT_ID":"2021-075E","EPOCH":"2026-05-13T01:07:30.561600","MEAN_MOTION":13.17650568,"ECCENTRICITY":0.0001385,"INCLINATION":87.9172,"RA_OF_ASC_NODE":12.8673,"ARG_OF_PERICENTER":77.7418,"MEAN_ANOMALY":282.3869,"EPHEMERIS_TYPE":0,"CLASSIFICATION_TYPE":"U","NORAD_CAT_ID":49079,"ELEMENT_SET_NO":999,"REV_AT_EPOCH":22957,"BSTAR":8.0258e-05,"MEAN_MOTION_DOT":4.4e-07,"MEAN_MOTION_DDOT":0.0},{"OBJECT_NAME":"ONEWEB-0290","OBJECT_ID":"2021-075F","EPOCH":"2026-05-13T02:18:10.111104","MEAN_MOTION":13.17647416,"ECCENTRICITY":0.0001344,"INCLINATION":87.9173,"RA_OF_ASC_NODE":12.8282,"ARG_OF_PERICENTER":74.2607,"MEAN_ANOMALY":285.8673,"EPHEMERIS_TYPE":0,"CLASSIFICATION_TYPE":"U","NORAD_CAT_ID":49080,"ELEMENT_SET_NO":999,"REV_AT_EPOCH":22899,"BSTAR":0.00010816000000000001,"MEAN_MOTION_DOT":5.5e-07,"MEAN_MOTION_DDOT":0.0},{"OBJECT_NAME":"ONEWEB-0291","OBJECT_ID":"2021-075G","EPOCH":"2026-05-12T09:32:11.666400","MEAN_MOTION":13.17648841,"ECCENTRICITY":0.0001576,"INCLINATION":87.9175,"RA_OF_ASC_NODE":12.9752,"ARG_OF_PERICENTER":92.3698,"MEAN_ANOMALY":267.7614,"EPHEMERIS_TYPE":0,"CLASSIFICATION_TYPE":"U","NORAD_CAT_ID":49081,"ELEMENT_SET_NO":999,"REV_AT_EPOCH":22889,"BSTAR":0.00076983,"MEAN_MOTION_DOT":3.12e-06,"MEAN_MOTION_DDOT":0.0},{"OBJECT_NAME":"ONEWEB-0293","OBJECT_ID":"2021-075H","EPOCH":"2026-05-13T02:32:45.187584","MEAN_MOTION":13.17648303,"ECCENTRICITY":0.0001667,"INCLINATION":87.9166,"RA_OF_ASC_NODE":12.84,"ARG_OF_PERICENTER":82.1693,"MEAN_ANOMALY":277.9628,"EPHEMERIS_TYPE":0,"CLASSIFICATION_TYPE":"U","NORAD_CAT_ID":49082,"ELEMENT_SET_NO":999,"REV_AT_EPOCH":22901,"BSTAR":0.00011921,"MEAN_MOTION_DOT":5.9e-07,"MEAN_MOTION_DDOT":0.0},{"OBJECT_NAME":"ONEWEB-0294","OBJECT_ID":"2021-075J","EPOCH":"2026-05-13T02:36:49.217472","MEAN_MOTION":13.12442283,"ECCENTRICITY":0.0001455,"INCLINATION":87.8972,"RA_OF_ASC_NODE":357.6327,"ARG_OF_PERICENTER":80.9105,"MEAN_ANOMALY":279.2188,"EPHEMERIS_TYPE":0,"CLASSIFICATION_TYPE":"U","NORAD_CAT_ID":49083,"ELEMENT_SET_NO":999,"REV_AT_EPOCH":22997,"BSTAR":-0.0013452,"MEAN_MOTION_DOT":-4.71e-06,"MEAN_MOTION_DDOT":0.0},{"OBJECT_NAME":"ONEWEB-0295","OBJECT_ID":"2021-075K","EPOCH":"2026-05-13T02:31:32.150208","MEAN_MOTION":13.17647538,"ECCENTRICITY":0.0001723,"INCLINATION":87.9165,"RA_OF_ASC_NODE":12.8444,"ARG_OF_PERICENTER":93.1341,"MEAN_ANOMALY":266.9987,"EPHEMERIS_TYPE":0,"CLASSIFICATION_TYPE":"U","NORAD_CAT_ID":49084,"ELEMENT_SET_NO":999,"REV_AT_EPOCH":22897,"BSTAR":0.00027548,"MEAN_MOTION_DOT":1.2e-06,"MEAN_MOTION_DDOT":0.0},{"OBJECT_NAME":"ONEWEB-0296","OBJECT_ID":"2021-075L","EPOCH":"2026-05-13T02:07:33.177216","MEAN_MOTION":13.12442941,"ECCENTRICITY":0.000158,"INCLINATION":87.8977,"RA_OF_ASC_NODE":357.6429,"ARG_OF_PERICENTER":94.1455,"MEAN_ANOMALY":265.9854,"EPHEMERIS_TYPE":0,"CLASSIFICATION_TYPE":"U","NORAD_CAT_ID":49085,"ELEMENT_SET_NO":999,"REV_AT_EPOCH":22997,"BSTAR":0.00043513000000000004,"MEAN_MOTION_DOT":1.69e-06,"MEAN_MOTION_DDOT":0.0},{"OBJECT_NAME":"ONEWEB-0297","OBJECT_ID":"2021-075M","EPOCH":"2026-05-13T01:01:40.174176","MEAN_MOTION":13.12442296,"ECCENTRICITY":0.0001791,"INCLINATION":87.8964,"RA_OF_ASC_NODE":357.6678,"ARG_OF_PERICENTER":87.4823,"MEAN_ANOMALY":272.6511,"EPHEMERIS_TYPE":0,"CLASSIFICATION_TYPE":"U","NORAD_CAT_ID":49086,"ELEMENT_SET_NO":999,"REV_AT_EPOCH":23057,"BSTAR":-0.00067987,"MEAN_MOTION_DOT":-2.32e-06,"MEAN_MOTION_DDOT":0.0},{"OBJECT_NAME":"ONEWEB-0298","OBJECT_ID":"2021-075N","EPOCH":"2026-05-12T22:59:07.344096","MEAN_MOTION":13.17648045,"ECCENTRICITY":0.0001971,"INCLINATION":87.9167,"RA_OF_ASC_NODE":12.8714,"ARG_OF_PERICENTER":83.6916,"MEAN_ANOMALY":276.444,"EPHEMERIS_TYPE":0,"CLASSIFICATION_TYPE":"U","NORAD_CAT_ID":49087,"ELEMENT_SET_NO":999,"REV_AT_EPOCH":22898,"BSTAR":4.1158e-05,"MEAN_MOTION_DOT":2.9e-07,"MEAN_MOTION_DDOT":0.0},{"OBJECT_NAME":"ONEWEB-0299","OBJECT_ID":"2021-075P","EPOCH":"2026-05-13T02:40:03.307296","MEAN_MOTION":13.17648661,"ECCENTRICITY":0.0001831,"INCLINATION":87.9175,"RA_OF_ASC_NODE":12.8178,"ARG_OF_PERICENTER":87.6913,"MEAN_ANOMALY":272.4428,"EPHEMERIS_TYPE":0,"CLASSIFICATION_TYPE":"U","NORAD_CAT_ID":49088,"ELEMENT_SET_NO":999,"REV_AT_EPOCH":22898,"BSTAR":0.00025199,"MEAN_MOTION_DOT":1.11e-06,"MEAN_MOTION_DDOT":0.0},{"OBJECT_NAME":"ONEWEB-0300","OBJECT_ID":"2021-075Q","EPOCH":"2026-05-13T02:40:29.696448","MEAN_MOTION":13.1244225,"ECCENTRICITY":0.000217,"INCLINATION":87.8975,"RA_OF_ASC_NODE":357.629,"ARG_OF_PERICENTER":84.5537,"MEAN_ANOMALY":275.5839,"EPHEMERIS_TYPE":0,"CLASSIFICATION_TYPE":"U","NORAD_CAT_ID":49089,"ELEMENT_SET_NO":999,"REV_AT_EPOCH":23060,"BSTAR":-0.0011015,"MEAN_MOTION_DOT":-3.84e-06,"MEAN_MOTION_DDOT":0.0},{"OBJECT_NAME":"ONEWEB-0301","OBJECT_ID":"2021-075R","EPOCH":"2026-05-13T00:27:32.788800","MEAN_MOTION":13.12441057,"ECCENTRICITY":0.0002094,"INCLINATION":87.8971,"RA_OF_ASC_NODE":357.6469,"ARG_OF_PERICENTER":80.4716,"MEAN_ANOMALY":279.6649,"EPHEMERIS_TYPE":0,"CLASSIFICATION_TYPE":"U","NORAD_CAT_ID":49090,"ELEMENT_SET_NO":999,"REV_AT_EPOCH":22995,"BSTAR":-0.00042125,"MEAN_MOTION_DOT":-1.39e-06,"MEAN_MOTION_DDOT":0.0},{"OBJECT_NAME":"ONEWEB-0302","OBJECT_ID":"2021-075S","EPOCH":"2026-05-13T00:08:01.226400","MEAN_MOTION":13.12443249,"ECCENTRICITY":0.0001432,"INCLINATION":87.8975,"RA_OF_ASC_NODE":357.6604,"ARG_OF_PERICENTER":85.1402,"MEAN_ANOMALY":274.989,"EPHEMERIS_TYPE":0,"CLASSIFICATION_TYPE":"U","NORAD_CAT_ID":49091,"ELEMENT_SET_NO":999,"REV_AT_EPOCH":22993,"BSTAR":0.0010048,"MEAN_MOTION_DOT":3.74e-06,"MEAN_MOTION_DDOT":0.0},{"OBJECT_NAME":"ONEWEB-0304","OBJECT_ID":"2021-075T","EPOCH":"2026-05-12T22:24:54.682272","MEAN_MOTION":13.1764933,"ECCENTRICITY":0.0001766,"INCLINATION":87.9167,"RA_OF_ASC_NODE":12.8787,"ARG_OF_PERICENTER":87.3157,"MEAN_ANOMALY":272.8176,"EPHEMERIS_TYPE":0,"CLASSIFICATION_TYPE":"U","NORAD_CAT_ID":49092,"ELEMENT_SET_NO":999,"REV_AT_EPOCH":22893,"BSTAR":-0.00023113000000000002,"MEAN_MOTION_DOT":-7.7e-07,"MEAN_MOTION_DDOT":0.0},{"OBJECT_NAME":"ONEWEB-0305","OBJECT_ID":"2021-075U","EPOCH":"2026-05-12T09:29:44.795040","MEAN_MOTION":13.1764986,"ECCENTRICITY":0.000187,"INCLINATION":87.9178,"RA_OF_ASC_NODE":12.9674,"ARG_OF_PERICENTER":95.7058,"MEAN_ANOMALY":264.4286,"EPHEMERIS_TYPE":0,"CLASSIFICATION_TYPE":"U","NORAD_CAT_ID":49093,"ELEMENT_SET_NO":999,"REV_AT_EPOCH":22889,"BSTAR":9.3455e-05,"MEAN_MOTION_DOT":4.9e-07,"MEAN_MOTION_DDOT":0.0},{"OBJECT_NAME":"ONEWEB-0308","OBJECT_ID":"2021-075V","EPOCH":"2026-05-12T23:58:15.452544","MEAN_MOTION":13.12443898,"ECCENTRICITY":0.0001718,"INCLINATION":87.8972,"RA_OF_ASC_NODE":357.6541,"ARG_OF_PERICENTER":83.1914,"MEAN_ANOMALY":276.941,"EPHEMERIS_TYPE":0,"CLASSIFICATION_TYPE":"U","NORAD_CAT_ID":49094,"ELEMENT_SET_NO":999,"REV_AT_EPOCH":22994,"BSTAR":0.00091435,"MEAN_MOTION_DOT":3.42e-06,"MEAN_MOTION_DDOT":0.0},{"OBJECT_NAME":"ONEWEB-0309","OBJECT_ID":"2021-075W","EPOCH":"2026-05-12T22:20:02.074848","MEAN_MOTION":13.17648881,"ECCENTRICITY":0.0001406,"INCLINATION":87.9167,"RA_OF_ASC_NODE":12.8724,"ARG_OF_PERICENTER":84.2558,"MEAN_ANOMALY":275.8734,"EPHEMERIS_TYPE":0,"CLASSIFICATION_TYPE":"U","NORAD_CAT_ID":49095,"ELEMENT_SET_NO":999,"REV_AT_EPOCH":22893,"BSTAR":8.055900000000001e-05,"MEAN_MOTION_DOT":4.4e-07,"MEAN_MOTION_DDOT":0.0},{"OBJECT_NAME":"ONEWEB-0310","OBJECT_ID":"2021-075X","EPOCH":"2026-05-13T00:20:12.251616","MEAN_MOTION":13.12439893,"ECCENTRICITY":0.0001767,"INCLINATION":87.8965,"RA_OF_ASC_NODE":357.6761,"ARG_OF_PERICENTER":83.131,"MEAN_ANOMALY":277.0019,"EPHEMERIS_TYPE":0,"CLASSIFICATION_TYPE":"U","NORAD_CAT_ID":49096,"ELEMENT_SET_NO":999,"REV_AT_EPOCH":23057,"BSTAR":0.00036408,"MEAN_MOTION_DOT":1.44e-06,"MEAN_MOTION_DDOT":0.0},{"OBJECT_NAME":"ONEWEB-0311","OBJECT_ID":"2021-075Y","EPOCH":"2026-05-12T22:29:46.423104","MEAN_MOTION":13.17647772,"ECCENTRICITY":0.0002057,"INCLINATION":87.9169,"RA_OF_ASC_NODE":12.8698,"ARG_OF_PERICENTER":94.3771,"MEAN_ANOMALY":265.7596,"EPHEMERIS_TYPE":0,"CLASSIFICATION_TYPE":"U","NORAD_CAT_ID":49097,"ELEMENT_SET_NO":999,"REV_AT_EPOCH":22898,"BSTAR":2.7936e-05,"MEAN_MOTION_DOT":2.4e-07,"MEAN_MOTION_DDOT":0.0},{"OBJECT_NAME":"ONEWEB-0312","OBJECT_ID":"2021-075Z","EPOCH":"2026-05-12T22:51:37.144800","MEAN_MOTION":13.17647496,"ECCENTRICITY":0.0001644,"INCLINATION":87.9168,"RA_OF_ASC_NODE":12.8788,"ARG_OF_PERICENTER":92.1753,"MEAN_ANOMALY":267.9567,"EPHEMERIS_TYPE":0,"CLASSIFICATION_TYPE":"U","NORAD_CAT_ID":49098,"ELEMENT_SET_NO":999,"REV_AT_EPOCH":22896,"BSTAR":8.2611e-05,"MEAN_MOTION_DOT":4.5e-07,"MEAN_MOTION_DDOT":0.0},{"OBJECT_NAME":"ONEWEB-0313","OBJECT_ID":"2021-075AA","EPOCH":"2026-05-13T02:37:26.300352","MEAN_MOTION":13.17649845,"ECCENTRICITY":0.0001828,"INCLINATION":87.9161,"RA_OF_ASC_NODE":12.8541,"ARG_OF_PERICENTER":85.7426,"MEAN_ANOMALY":274.3915,"EPHEMERIS_TYPE":0,"CLASSIFICATION_TYPE":"U","NORAD_CAT_ID":49099,"ELEMENT_SET_NO":999,"REV_AT_EPOCH":22897,"BSTAR":0.00013753000000000002,"MEAN_MOTION_DOT":6.6e-07,"MEAN_MOTION_DDOT":0.0},{"OBJECT_NAME":"ONEWEB-0314","OBJECT_ID":"2021-075AB","EPOCH":"2026-05-12T02:07:30.013248","MEAN_MOTION":13.17648354,"ECCENTRICITY":0.000164,"INCLINATION":87.9177,"RA_OF_ASC_NODE":13.0252,"ARG_OF_PERICENTER":93.8344,"MEAN_ANOMALY":266.2975,"EPHEMERIS_TYPE":0,"CLASSIFICATION_TYPE":"U","NORAD_CAT_ID":49100,"ELEMENT_SET_NO":999,"REV_AT_EPOCH":22881,"BSTAR":0.00013413,"MEAN_MOTION_DOT":6.5e-07,"MEAN_MOTION_DDOT":0.0}]